BEIDOU-2 IGSO-1 (C06)   
1 36828U 10036A   26061.07189801 -.00000163  00000+0  00000+0 0  9995
2 36828  54.2922 163.9315 0053965 219.0406 268.0169  1.00252677 57027
BEIDOU-2 G4 (C04)       
1 37210U 10057A   26061.82892068 -.00000127  00000+0  00000+0 0  9993
2 37210   3.3826  69.5548 0009183 210.1156 339.3432  1.00271977 56227
BEIDOU-2 IGSO-2 (C07)   
1 37256U 10068A   26061.28389944 -.00000169  00000+0  00000+0 0  9995
2 37256  47.7363 273.1534 0047418 212.8884 243.4237  1.00259336 55720
BEIDOU-2 IGSO-3 (C08)   
1 37384U 11013A   26058.90884667 -.00000154  00000+0  00000+0 0  9999
2 37384  62.2642  41.1818 0035029 190.8154 358.7681  1.00294022 54567
BEIDOU-2 IGSO-4 (C09)   
1 37763U 11038A   26060.75143950 -.00000133  00000+0  00000+0 0  9993
2 37763  54.5889 166.6436 0154411 230.9971 126.9270  1.00265713 53567
BEIDOU-2 IGSO-5 (C10)   
1 37948U 11073A   26060.51498981 -.00000133  00000+0  00000+0 0  9998
2 37948  47.8731 272.8747 0108570 221.0681 305.9392  1.00272949 52058
BEIDOU-2 G5 (C05)       
1 38091U 12008A   26061.74242132  .00000041  00000+0  00000+0 0  9995
2 38091   3.3080  70.3182 0014141 249.6978 166.5325  1.00275702 51305
BEIDOU-2 M3 (C11)       
1 38250U 12018A   26060.26023843 -.00000050  00000+0  00000+0 0  9996
2 38250  55.8494 308.5146 0021337 279.5762  80.2419  1.86229696 93933
BEIDOU-2 M4 (C12)       
1 38251U 12018B   26058.58148709 -.00000045  00000+0  00000+0 0  9992
2 38251  55.7521 307.7944 0013045 286.0559  73.8564  1.86229541 93900
BEIDOU-2 M6 (C14)       
1 38775U 12050B   26060.97652929 -.00000006  00000+0  00000+0 0  9996
2 38775  56.4507  66.4378 0013903 341.6100  18.3756  1.86230866 91318
BEIDOU-2 G6 (C02)       
1 38953U 12059A   26061.67608644 -.00000189  00000+0  00000+0 0  9998
2 38953   4.1513  74.6631 0010360 301.9837 111.1809  1.00269353 48846
BEIDOU-3S IGSO-1S (C31) 
1 40549U 15019A   26061.65185574 -.00000159  00000+0  00000+0 0  9998
2 40549  49.3937 296.7449 0035828 190.3764   4.4663  1.00274083 40008
BEIDOU-3S M2S (C58)     
1 40748U 15037A   26061.47039307 -.00000051  00000+0  00000+0 0  9992
2 40748  54.9645 305.7221 0008898 278.2960  81.6638  1.86231797 72134
BEIDOU-3S M1S (C57)     
1 40749U 15037B   26060.08018090 -.00000045  00000+0  00000+0 0  9998
2 40749  54.9622 305.7581 0004531  29.0450 331.0396  1.86253680 72111
BEIDOU-2 IGSO-6 (C13)   
1 41434U 16021A   26061.65428091 -.00000145  00000+0  00000+0 0  9995
2 41434  60.0842  39.0953 0059816 233.4518 219.1322  1.00278611 36412
BEIDOU-2 G7 (C03)       
1 41586U 16037A   26061.90863895 -.00000368  00000+0  00000+0 0  9990
2 41586   1.4576  68.1724 0007426 341.6272 188.5094  1.00268002  5820
BEIDOU-3 M1 (C19)       
1 43001U 17069A   26060.74197850 -.00000003  00000+0  00000+0 0  9998
2 43001  56.5988  66.6221 0012398 309.4779  50.4494  1.86230886 56601
